KUIPER-00104            
1 65142U 25171L   25316.33336806  .00026306  00000+0  14722-2 0  9997
2 65142  51.8881 319.3305 0005206 100.3597   7.7834 15.13260014  5831
KUIPER-00105            
1 65143U 25171M   25316.33336806  .00010115  00000+0  11623-2 0  9996
2 65143  51.8983 324.6785 0012721  78.8881  61.7673 14.86258839  3527
KUIPER-00106            
1 65144U 25171N   25316.26341849  .00020928  00000+0  18601-2 0  9998
2 65144  51.8973 328.2011 0009713  67.4898 292.7098 14.96031501 15355
KUIPER-00107            
1 65145U 25171P   25316.33336806 -.00745001  00000+0 -24610-1 0  9998
2 65145  51.8782 316.4390 0006519  92.1391 295.6627 15.33475054  5577
KUIPER-00108            
1 65146U 25171Q   25316.33336806 -.01016382  00000+0 -81369-1 0  9997
2 65146  51.9165 320.6621 0008952  82.9620  23.3071 15.02510125  5814
KUIPER-00109            
1 65147U 25171R   25316.33336806 -.00970572  00000+0 -54186-1 0  9994
2 65147  51.8833 318.1416 0013234  92.1138 231.7723 15.15823289  4805
KUIPER-00110            
1 65148U 25171S   25316.30528078 -.00163889  00000+0 -18247-1 0  9999
2 65148  51.8968 326.9634 0011355  82.6226 277.6029 14.87570374 15361
KUIPER-00111            
1 65149U 25171T   25316.29434522  .00009952  00000+0  13301-2 0  9993
2 65149  51.8993 332.1998 0010058  91.7036 268.5078 14.79984981 15290
