<?xml version="1.0" encoding="UTF-8"?>
<ndm xmlns:xsi="http://www.w3.org/2001/XMLSchema-instance" xsi:noNamespaceSchemaLocation="https://sanaregistry.org/r/ndmxml_unqualified/ndmxml-2.0.0-master-2.0.xsd">
<omm id="CCSDS_OMM_VERS" version="2.0">
<header><CREATION_DATE/><ORIGINATOR/></header><body><segment><metadata><OBJECT_NAME>KUIPER-00104</OBJECT_NAME><OBJECT_ID>2025-171L</OBJECT_ID><CENTER_NAME>EARTH</CENTER_NAME><REF_FRAME>TEME</REF_FRAME><TIME_SYSTEM>UTC</TIME_SYSTEM><MEAN_ELEMENT_THEORY>SGP4</MEAN_ELEMENT_THEORY></metadata><data><meanElements><EPOCH>2025-11-12T08:00:03.000384</EPOCH><MEAN_MOTION>15.13260014</MEAN_MOTION><ECCENTRICITY>.00052064</ECCENTRICITY><INCLINATION>51.8881</INCLINATION><RA_OF_ASC_NODE>319.3305</RA_OF_ASC_NODE><ARG_OF_PERICENTER>100.3597</ARG_OF_PERICENTER><MEAN_ANOMALY>7.7834</MEAN_ANOMALY></meanElements><tleParameters><EPHEMERIS_TYPE>0</EPHEMERIS_TYPE><CLASSIFICATION_TYPE>U</CLASSIFICATION_TYPE><NORAD_CAT_ID>65142</NORAD_CAT_ID><ELEMENT_SET_NO>999</ELEMENT_SET_NO><REV_AT_EPOCH>583</REV_AT_EPOCH><BSTAR>.14722446E-2</BSTAR><MEAN_MOTION_DOT>.26306E-3</MEAN_MOTION_DOT><MEAN_MOTION_DDOT>0</MEAN_MOTION_DDOT></tleParameters></data></segment></body></omm>
<omm id="CCSDS_OMM_VERS" version="2.0">
<header><CREATION_DATE/><ORIGINATOR/></header><body><segment><metadata><OBJECT_NAME>KUIPER-00105</OBJECT_NAME><OBJECT_ID>2025-171M</OBJECT_ID><CENTER_NAME>EARTH</CENTER_NAME><REF_FRAME>TEME</REF_FRAME><TIME_SYSTEM>UTC</TIME_SYSTEM><MEAN_ELEMENT_THEORY>SGP4</MEAN_ELEMENT_THEORY></metadata><data><meanElements><EPOCH>2025-11-12T08:00:03.000384</EPOCH><MEAN_MOTION>14.86258839</MEAN_MOTION><ECCENTRICITY>.0012721</ECCENTRICITY><INCLINATION>51.8983</INCLINATION><RA_OF_ASC_NODE>324.6785</RA_OF_ASC_NODE><ARG_OF_PERICENTER>78.8881</ARG_OF_PERICENTER><MEAN_ANOMALY>61.7673</MEAN_ANOMALY></meanElements><tleParameters><EPHEMERIS_TYPE>0</EPHEMERIS_TYPE><CLASSIFICATION_TYPE>U</CLASSIFICATION_TYPE><NORAD_CAT_ID>65143</NORAD_CAT_ID><ELEMENT_SET_NO>999</ELEMENT_SET_NO><REV_AT_EPOCH>352</REV_AT_EPOCH><BSTAR>.11623054E-2</BSTAR><MEAN_MOTION_DOT>.10115E-3</MEAN_MOTION_DOT><MEAN_MOTION_DDOT>0</MEAN_MOTION_DDOT></tleParameters></data></segment></body></omm>
<omm id="CCSDS_OMM_VERS" version="2.0">
<header><CREATION_DATE/><ORIGINATOR/></header><body><segment><metadata><OBJECT_NAME>KUIPER-00106</OBJECT_NAME><OBJECT_ID>2025-171N</OBJECT_ID><CENTER_NAME>EARTH</CENTER_NAME><REF_FRAME>TEME</REF_FRAME><TIME_SYSTEM>UTC</TIME_SYSTEM><MEAN_ELEMENT_THEORY>SGP4</MEAN_ELEMENT_THEORY></metadata><data><meanElements><EPOCH>2025-11-12T06:19:19.357536</EPOCH><MEAN_MOTION>14.96031501</MEAN_MOTION><ECCENTRICITY>.00097136</ECCENTRICITY><INCLINATION>51.8973</INCLINATION><RA_OF_ASC_NODE>328.2011</RA_OF_ASC_NODE><ARG_OF_PERICENTER>67.4898</ARG_OF_PERICENTER><MEAN_ANOMALY>292.7098</MEAN_ANOMALY></meanElements><tleParameters><EPHEMERIS_TYPE>0</EPHEMERIS_TYPE><CLASSIFICATION_TYPE>U</CLASSIFICATION_TYPE><NORAD_CAT_ID>65144</NORAD_CAT_ID><ELEMENT_SET_NO>999</ELEMENT_SET_NO><REV_AT_EPOCH>1535</REV_AT_EPOCH><BSTAR>.18601272E-2</BSTAR><MEAN_MOTION_DOT>.20928E-3</MEAN_MOTION_DOT><MEAN_MOTION_DDOT>0</MEAN_MOTION_DDOT></tleParameters></data></segment></body></omm>
<omm id="CCSDS_OMM_VERS" version="2.0">
<header><CREATION_DATE/><ORIGINATOR/></header><body><segment><metadata><OBJECT_NAME>KUIPER-00107</OBJECT_NAME><OBJECT_ID>2025-171P</OBJECT_ID><CENTER_NAME>EARTH</CENTER_NAME><REF_FRAME>TEME</REF_FRAME><TIME_SYSTEM>UTC</TIME_SYSTEM><MEAN_ELEMENT_THEORY>SGP4</MEAN_ELEMENT_THEORY></metadata><data><meanElements><EPOCH>2025-11-12T08:00:03.000384</EPOCH><MEAN_MOTION>15.33475054</MEAN_MOTION><ECCENTRICITY>.0006519</ECCENTRICITY><INCLINATION>51.8782</INCLINATION><RA_OF_ASC_NODE>316.4390</RA_OF_ASC_NODE><ARG_OF_PERICENTER>92.1391</ARG_OF_PERICENTER><MEAN_ANOMALY>295.6627</MEAN_ANOMALY></meanElements><tleParameters><EPHEMERIS_TYPE>0</EPHEMERIS_TYPE><CLASSIFICATION_TYPE>U</CLASSIFICATION_TYPE><NORAD_CAT_ID>65145</NORAD_CAT_ID><ELEMENT_SET_NO>999</ELEMENT_SET_NO><REV_AT_EPOCH>557</REV_AT_EPOCH><BSTAR>-.24610293E-1</BSTAR><MEAN_MOTION_DOT>-.745001E-2</MEAN_MOTION_DOT><MEAN_MOTION_DDOT>0</MEAN_MOTION_DDOT></tleParameters></data></segment></body></omm>
<omm id="CCSDS_OMM_VERS" version="2.0">
<header><CREATION_DATE/><ORIGINATOR/></header><body><segment><metadata><OBJECT_NAME>KUIPER-00108</OBJECT_NAME><OBJECT_ID>2025-171Q</OBJECT_ID><CENTER_NAME>EARTH</CENTER_NAME><REF_FRAME>TEME</REF_FRAME><TIME_SYSTEM>UTC</TIME_SYSTEM><MEAN_ELEMENT_THEORY>SGP4</MEAN_ELEMENT_THEORY></metadata><data><meanElements><EPOCH>2025-11-12T08:00:03.000384</EPOCH><MEAN_MOTION>15.02510125</MEAN_MOTION><ECCENTRICITY>.00089526</ECCENTRICITY><INCLINATION>51.9165</INCLINATION><RA_OF_ASC_NODE>320.6621</RA_OF_ASC_NODE><ARG_OF_PERICENTER>82.9620</ARG_OF_PERICENTER><MEAN_ANOMALY>23.3071</MEAN_ANOMALY></meanElements><tleParameters><EPHEMERIS_TYPE>0</EPHEMERIS_TYPE><CLASSIFICATION_TYPE>U</CLASSIFICATION_TYPE><NORAD_CAT_ID>65146</NORAD_CAT_ID><ELEMENT_SET_NO>999</ELEMENT_SET_NO><REV_AT_EPOCH>581</REV_AT_EPOCH><BSTAR>-.81369029E-1</BSTAR><MEAN_MOTION_DOT>-.1016382E-1</MEAN_MOTION_DOT><MEAN_MOTION_DDOT>0</MEAN_MOTION_DDOT></tleParameters></data></segment></body></omm>
<omm id="CCSDS_OMM_VERS" version="2.0">
<header><CREATION_DATE/><ORIGINATOR/></header><body><segment><metadata><OBJECT_NAME>KUIPER-00109</OBJECT_NAME><OBJECT_ID>2025-171R</OBJECT_ID><CENTER_NAME>EARTH</CENTER_NAME><REF_FRAME>TEME</REF_FRAME><TIME_SYSTEM>UTC</TIME_SYSTEM><MEAN_ELEMENT_THEORY>SGP4</MEAN_ELEMENT_THEORY></metadata><data><meanElements><EPOCH>2025-11-12T08:00:03.000384</EPOCH><MEAN_MOTION>15.15823289</MEAN_MOTION><ECCENTRICITY>.00132344</ECCENTRICITY><INCLINATION>51.8833</INCLINATION><RA_OF_ASC_NODE>318.1416</RA_OF_ASC_NODE><ARG_OF_PERICENTER>92.1138</ARG_OF_PERICENTER><MEAN_ANOMALY>231.7723</MEAN_ANOMALY></meanElements><tleParameters><EPHEMERIS_TYPE>0</EPHEMERIS_TYPE><CLASSIFICATION_TYPE>U</CLASSIFICATION_TYPE><NORAD_CAT_ID>65147</NORAD_CAT_ID><ELEMENT_SET_NO>999</ELEMENT_SET_NO><REV_AT_EPOCH>480</REV_AT_EPOCH><BSTAR>-.54186369E-1</BSTAR><MEAN_MOTION_DOT>-.970572E-2</MEAN_MOTION_DOT><MEAN_MOTION_DDOT>0</MEAN_MOTION_DDOT></tleParameters></data></segment></body></omm>
<omm id="CCSDS_OMM_VERS" version="2.0">
<header><CREATION_DATE/><ORIGINATOR/></header><body><segment><metadata><OBJECT_NAME>KUIPER-00110</OBJECT_NAME><OBJECT_ID>2025-171S</OBJECT_ID><CENTER_NAME>EARTH</CENTER_NAME><REF_FRAME>TEME</REF_FRAME><TIME_SYSTEM>UTC</TIME_SYSTEM><MEAN_ELEMENT_THEORY>SGP4</MEAN_ELEMENT_THEORY></metadata><data><meanElements><EPOCH>2025-11-12T07:19:36.259392</EPOCH><MEAN_MOTION>14.87570374</MEAN_MOTION><ECCENTRICITY>.00113556</ECCENTRICITY><INCLINATION>51.8968</INCLINATION><RA_OF_ASC_NODE>326.9634</RA_OF_ASC_NODE><ARG_OF_PERICENTER>82.6226</ARG_OF_PERICENTER><MEAN_ANOMALY>277.6029</MEAN_ANOMALY></meanElements><tleParameters><EPHEMERIS_TYPE>0</EPHEMERIS_TYPE><CLASSIFICATION_TYPE>U</CLASSIFICATION_TYPE><NORAD_CAT_ID>65148</NORAD_CAT_ID><ELEMENT_SET_NO>999</ELEMENT_SET_NO><REV_AT_EPOCH>1536</REV_AT_EPOCH><BSTAR>-.18246523E-1</BSTAR><MEAN_MOTION_DOT>-.163889E-2</MEAN_MOTION_DOT><MEAN_MOTION_DDOT>0</MEAN_MOTION_DDOT></tleParameters></data></segment></body></omm>
<omm id="CCSDS_OMM_VERS" version="2.0">
<header><CREATION_DATE/><ORIGINATOR/></header><body><segment><metadata><OBJECT_NAME>KUIPER-00111</OBJECT_NAME><OBJECT_ID>2025-171T</OBJECT_ID><CENTER_NAME>EARTH</CENTER_NAME><REF_FRAME>TEME</REF_FRAME><TIME_SYSTEM>UTC</TIME_SYSTEM><MEAN_ELEMENT_THEORY>SGP4</MEAN_ELEMENT_THEORY></metadata><data><meanElements><EPOCH>2025-11-12T07:03:51.427008</EPOCH><MEAN_MOTION>14.79984981</MEAN_MOTION><ECCENTRICITY>.00100587</ECCENTRICITY><INCLINATION>51.8993</INCLINATION><RA_OF_ASC_NODE>332.1998</RA_OF_ASC_NODE><ARG_OF_PERICENTER>91.7036</ARG_OF_PERICENTER><MEAN_ANOMALY>268.5078</MEAN_ANOMALY></meanElements><tleParameters><EPHEMERIS_TYPE>0</EPHEMERIS_TYPE><CLASSIFICATION_TYPE>U</CLASSIFICATION_TYPE><NORAD_CAT_ID>65149</NORAD_CAT_ID><ELEMENT_SET_NO>999</ELEMENT_SET_NO><REV_AT_EPOCH>1529</REV_AT_EPOCH><BSTAR>.13300991E-2</BSTAR><MEAN_MOTION_DOT>.9952E-4</MEAN_MOTION_DOT><MEAN_MOTION_DDOT>0</MEAN_MOTION_DDOT></tleParameters></data></segment></body></omm>

</ndm>
